{
  "type": "FeatureCollection",
  "features": [
    { "type": "Feature", "properties": { "id": "13104", "name": "新宿区", "pref": "東京都" },
      "geometry": { "type": "Polygon", "coordinates": [[[139.700,35.690],[139.725,35.690],[139.725,35.710],[139.700,35.710],[139.700,35.690]]] } },
    { "type": "Feature", "properties": { "id": "13105", "name": "文京区", "pref": "東京都" },
      "geometry": { "type": "Polygon", "coordinates": [[[139.725,35.690],[139.750,35.690],[139.750,35.710],[139.725,35.710],[139.725,35.690]]] } },
    { "type": "Feature", "properties": { "id": "13101", "name": "千代田区", "pref": "東京都" },
      "geometry": { "type": "Polygon", "coordinates": [[[139.750,35.690],[139.775,35.690],[139.775,35.710],[139.750,35.710],[139.750,35.690]]] } },
    { "type": "Feature", "properties": { "id": "13113", "name": "渋谷区", "pref": "東京都" },
      "geometry": { "type": "Polygon", "coordinates": [[[139.700,35.660],[139.725,35.660],[139.725,35.690],[139.700,35.690],[139.700,35.660]]] } },
    { "type": "Feature", "properties": { "id": "13103", "name": "港区", "pref": "東京都" },
      "geometry": { "type": "Polygon", "coordinates": [[[139.725,35.660],[139.750,35.660],[139.750,35.690],[139.725,35.690],[139.725,35.660]]] } },
    { "type": "Feature", "properties": { "id": "13102", "name": "中央区", "pref": "東京都" },
      "geometry": { "type": "Polygon", "coordinates": [[[139.750,35.660],[139.775,35.660],[139.775,35.690],[139.750,35.690],[139.750,35.660]]] } }
  ]
}
