{"type":"FeatureCollection","features":[{"type":"Feature","id":"onsen_001","properties":{"id":"onsen_001","name":"菅野温泉","pref":"北海道"},"geometry":{"type":"Point","coordinates":[143.049167,43.325556]}},{"type":"Feature","id":"onsen_002","properties":{"id":"onsen_002","name":"養老牛温泉","pref":"北海道"},"geometry":{"type":"Point","coordinates":[144.718333,43.587222]}},{"type":"Feature","id":"onsen_003","properties":{"id":"onsen_003","name":"定山渓温泉","pref":"北海道"},"geometry":{"type":"Point","coordinates":[141.1625,42.964444]}},{"type":"Feature","id":"onsen_004","properties":{"id":"onsen_004","name":"登別温泉","pref":"北海道"},"geometry":{"type":"Point","coordinates":[141.143611,42.494722]}},{"type":"Feature","id":"onsen_005","properties":{"id":"onsen_005","name":"洞爺湖温泉","pref":"北海道"},"geometry":{"type":"Point","coordinates":[140.821944,42.565833]}},{"type":"Feature","id":"onsen_006","properties":{"id":"onsen_006","name":"ニセコ温泉郷","pref":"北海道"},"geometry":{"type":"Point","coordinates":[140.598055,42.798055]}},{"type":"Feature","id":"onsen_007","properties":{"id":"onsen_007","name":"朝日温泉","pref":"北海道"},"geometry":{"type":"Point","coordinates":[140.424722,42.916667]}},{"type":"Feature","id":"onsen_008","properties":{"id":"onsen_008","name":"酸ヶ湯温泉","pref":"青森県"},"geometry":{"type":"Point","coordinates":[140.850833,40.650278]}},{"type":"Feature","id":"onsen_009","properties":{"id":"onsen_009","name":"蔦温泉","pref":"青森県"},"geometry":{"type":"Point","coordinates":[140.953056,40.596944]}},{"type":"Feature","id":"onsen_010","properties":{"id":"onsen_010","name":"花巻南温泉峡","pref":"岩手県"},"geometry":{"type":"Point","coordinates":[140.991667,39.465278]}},{"type":"Feature","id":"onsen_011","properties":{"id":"onsen_011","name":"夏油温泉","pref":"岩手県"},"geometry":{"type":"Point","coordinates":[140.888056,39.2125]}},{"type":"Feature","id":"onsen_012","properties":{"id":"onsen_012","name":"須川高原温泉","pref":"岩手県"},"geometry":{"type":"Point","coordinates":[140.770556,38.979722]}},{"type":"Feature","id":"onsen_013","properties":{"id":"onsen_013","name":"鳴子温泉郷","pref":"宮城県"},"geometry":{"type":"Point","coordinates":[140.717222,38.7425]}},{"type":"Feature","id":"onsen_014","properties":{"id":"onsen_014","name":"遠刈田温泉","pref":"宮城県"},"geometry":{"type":"Point","coordinates":[140.576944,38.124167]}},{"type":"Feature","id":"onsen_015","properties":{"id":"onsen_015","name":"峩々温泉","pref":"宮城県"},"geometry":{"type":"Point","coordinates":[140.500555,38.144444]}},{"type":"Feature","id":"onsen_016","properties":{"id":"onsen_016","name":"乳頭温泉郷","pref":"秋田県"},"geometry":{"type":"Point","coordinates":[140.798056,39.804167]}},{"type":"Feature","id":"onsen_017","properties":{"id":"onsen_017","name":"後生掛温泉","pref":"秋田県"},"geometry":{"type":"Point","coordinates":[140.8,39.972222]}},{"type":"Feature","id":"onsen_018","properties":{"id":"onsen_018","name":"玉川温泉","pref":"秋田県"},"geometry":{"type":"Point","coordinates":[140.724167,39.964167]}},{"type":"Feature","id":"onsen_019","properties":{"id":"onsen_019","name":"秋ノ宮温泉郷","pref":"秋田県"},"geometry":{"type":"Point","coordinates":[140.536667,38.959722]}},{"type":"Feature","id":"onsen_020","properties":{"id":"onsen_020","name":"銀山温泉","pref":"山形県"},"geometry":{"type":"Point","coordinates":[140.530833,38.57]}},{"type":"Feature","id":"onsen_021","properties":{"id":"onsen_021","name":"瀬見温泉","pref":"山形県"},"geometry":{"type":"Point","coordinates":[140.412778,38.754167]}},{"type":"Feature","id":"onsen_022","properties":{"id":"onsen_022","name":"赤倉温泉","pref":"山形県"},"geometry":{"type":"Point","coordinates":[140.553055,38.710278]}},{"type":"Feature","id":"onsen_023","properties":{"id":"onsen_023","name":"東山温泉","pref":"福島県"},"geometry":{"type":"Point","coordinates":[139.9625,37.478056]}},{"type":"Feature","id":"onsen_024","properties":{"id":"onsen_024","name":"飯坂温泉","pref":"福島県"},"geometry":{"type":"Point","coordinates":[140.450278,37.831944]}},{"type":"Feature","id":"onsen_025","properties":{"id":"onsen_025","name":"二岐温泉","pref":"福島県"},"geometry":{"type":"Point","coordinates":[139.988333,37.241667]}},{"type":"Feature","id":"onsen_026","properties":{"id":"onsen_026","name":"那須温泉郷","pref":"栃木県"},"geometry":{"type":"Point","coordinates":[140.001389,37.097222]}},{"type":"Feature","id":"onsen_027","properties":{"id":"onsen_027","name":"塩原温泉郷","pref":"栃木県"},"geometry":{"type":"Point","coordinates":[139.818889,36.970556]}},{"type":"Feature","id":"onsen_028","properties":{"id":"onsen_028","name":"鬼怒川温泉","pref":"栃木県"},"geometry":{"type":"Point","coordinates":[139.719722,36.835833]}},{"type":"Feature","id":"onsen_029","properties":{"id":"onsen_029","name":"奥鬼怒温泉郷","pref":"栃木県"},"geometry":{"type":"Point","coordinates":[139.388333,36.866111]}},{"type":"Feature","id":"onsen_030","properties":{"id":"onsen_030","name":"草津温泉","pref":"群馬県"},"geometry":{"type":"Point","coordinates":[138.596667,36.622778]}},{"type":"Feature","id":"onsen_031","properties":{"id":"onsen_031","name":"伊香保温泉","pref":"群馬県"},"geometry":{"type":"Point","coordinates":[138.915556,36.496944]}},{"type":"Feature","id":"onsen_032","properties":{"id":"onsen_032","name":"四万温泉","pref":"群馬県"},"geometry":{"type":"Point","coordinates":[138.780278,36.681667]}},{"type":"Feature","id":"onsen_033","properties":{"id":"onsen_033","name":"法師温泉","pref":"群馬県"},"geometry":{"type":"Point","coordinates":[138.829722,36.743889]}},{"type":"Feature","id":"onsen_034","properties":{"id":"onsen_034","name":"箱根湯本温泉","pref":"神奈川県"},"geometry":{"type":"Point","coordinates":[139.098611,35.229167]}},{"type":"Feature","id":"onsen_035","properties":{"id":"onsen_035","name":"塔之沢温泉","pref":"神奈川県"},"geometry":{"type":"Point","coordinates":[139.092222,35.232222]}},{"type":"Feature","id":"onsen_036","properties":{"id":"onsen_036","name":"芦之湯温泉","pref":"神奈川県"},"geometry":{"type":"Point","coordinates":[139.041389,35.22]}},{"type":"Feature","id":"onsen_037","properties":{"id":"onsen_037","name":"湯河原温泉","pref":"神奈川県"},"geometry":{"type":"Point","coordinates":[139.071667,35.147222]}},{"type":"Feature","id":"onsen_038","properties":{"id":"onsen_038","name":"越後湯沢温泉","pref":"新潟県"},"geometry":{"type":"Point","coordinates":[138.806667,36.934722]}},{"type":"Feature","id":"onsen_039","properties":{"id":"onsen_039","name":"松之山温泉","pref":"新潟県"},"geometry":{"type":"Point","coordinates":[138.599444,37.064722]}},{"type":"Feature","id":"onsen_040","properties":{"id":"onsen_040","name":"大牧温泉","pref":"富山県"},"geometry":{"type":"Point","coordinates":[136.994167,36.500555]}},{"type":"Feature","id":"onsen_041","properties":{"id":"onsen_041","name":"黒部峡谷温泉郷","pref":"富山県"},"geometry":{"type":"Point","coordinates":[137.583611,36.817222]}},{"type":"Feature","id":"onsen_042","properties":{"id":"onsen_042","name":"山中温泉","pref":"石川県"},"geometry":{"type":"Point","coordinates":[136.374722,36.246111]}},{"type":"Feature","id":"onsen_043","properties":{"id":"onsen_043","name":"山代温泉","pref":"石川県"},"geometry":{"type":"Point","coordinates":[136.364722,36.289722]}},{"type":"Feature","id":"onsen_044","properties":{"id":"onsen_044","name":"粟津温泉","pref":"石川県"},"geometry":{"type":"Point","coordinates":[136.446111,36.330556]}},{"type":"Feature","id":"onsen_045","properties":{"id":"onsen_045","name":"奈良田温泉","pref":"山梨県"},"geometry":{"type":"Point","coordinates":[138.300556,35.576667]}},{"type":"Feature","id":"onsen_046","properties":{"id":"onsen_046","name":"西山温泉","pref":"山梨県"},"geometry":{"type":"Point","coordinates":[138.306944,35.554444]}},{"type":"Feature","id":"onsen_047","properties":{"id":"onsen_047","name":"野沢温泉","pref":"長野県"},"geometry":{"type":"Point","coordinates":[138.448889,36.924722]}},{"type":"Feature","id":"onsen_048","properties":{"id":"onsen_048","name":"湯田中温泉","pref":"長野県"},"geometry":{"type":"Point","coordinates":[138.420278,36.74]}},{"type":"Feature","id":"onsen_049","properties":{"id":"onsen_049","name":"別所温泉","pref":"長野県"},"geometry":{"type":"Point","coordinates":[138.154167,36.349167]}},{"type":"Feature","id":"onsen_050","properties":{"id":"onsen_050","name":"中房温泉","pref":"長野県"},"geometry":{"type":"Point","coordinates":[137.746944,36.394444]}},{"type":"Feature","id":"onsen_051","properties":{"id":"onsen_051","name":"白骨温泉","pref":"長野県"},"geometry":{"type":"Point","coordinates":[137.626389,36.153611]}},{"type":"Feature","id":"onsen_052","properties":{"id":"onsen_052","name":"小谷温泉","pref":"長野県"},"geometry":{"type":"Point","coordinates":[137.980556,36.861944]}},{"type":"Feature","id":"onsen_053","properties":{"id":"onsen_053","name":"下呂温泉","pref":"岐阜県"},"geometry":{"type":"Point","coordinates":[137.240278,35.8075]}},{"type":"Feature","id":"onsen_054","properties":{"id":"onsen_054","name":"福地温泉","pref":"岐阜県"},"geometry":{"type":"Point","coordinates":[137.531111,36.224722]}},{"type":"Feature","id":"onsen_055","properties":{"id":"onsen_055","name":"熱海温泉","pref":"静岡県"},"geometry":{"type":"Point","coordinates":[139.073333,35.0975]}},{"type":"Feature","id":"onsen_056","properties":{"id":"onsen_056","name":"伊東温泉","pref":"静岡県"},"geometry":{"type":"Point","coordinates":[139.091111,34.962222]}},{"type":"Feature","id":"onsen_057","properties":{"id":"onsen_057","name":"修善寺温泉","pref":"静岡県"},"geometry":{"type":"Point","coordinates":[138.927222,34.969722]}},{"type":"Feature","id":"onsen_058","properties":{"id":"onsen_058","name":"湯谷温泉","pref":"愛知県"},"geometry":{"type":"Point","coordinates":[137.614167,34.967778]}},{"type":"Feature","id":"onsen_059","properties":{"id":"onsen_059","name":"榊原温泉","pref":"三重県"},"geometry":{"type":"Point","coordinates":[136.369722,34.708611]}},{"type":"Feature","id":"onsen_060","properties":{"id":"onsen_060","name":"木津温泉","pref":"京都"},"geometry":{"type":"Point","coordinates":[134.973889,35.650556]}},{"type":"Feature","id":"onsen_061","properties":{"id":"onsen_061","name":"有馬温泉","pref":"兵庫県"},"geometry":{"type":"Point","coordinates":[135.250278,34.796667]}},{"type":"Feature","id":"onsen_062","properties":{"id":"onsen_062","name":"城崎温泉","pref":"兵庫県"},"geometry":{"type":"Point","coordinates":[134.809722,35.626389]}},{"type":"Feature","id":"onsen_063","properties":{"id":"onsen_063","name":"湯村温泉","pref":"兵庫県"},"geometry":{"type":"Point","coordinates":[134.488056,35.554722]}},{"type":"Feature","id":"onsen_064","properties":{"id":"onsen_064","name":"十津川温泉","pref":"奈良県"},"geometry":{"type":"Point","coordinates":[135.768889,33.940278]}},{"type":"Feature","id":"onsen_065","properties":{"id":"onsen_065","name":"南紀白浜温泉","pref":"和歌山県"},"geometry":{"type":"Point","coordinates":[135.333889,33.671944]}},{"type":"Feature","id":"onsen_066","properties":{"id":"onsen_066","name":"南紀勝浦温泉","pref":"和歌山県"},"geometry":{"type":"Point","coordinates":[135.951111,33.626667]}},{"type":"Feature","id":"onsen_067","properties":{"id":"onsen_067","name":"湯の峰温泉","pref":"和歌山県"},"geometry":{"type":"Point","coordinates":[135.7575,33.829167]}},{"type":"Feature","id":"onsen_068","properties":{"id":"onsen_068","name":"龍神温泉","pref":"和歌山県"},"geometry":{"type":"Point","coordinates":[135.562222,33.955833]}},{"type":"Feature","id":"onsen_069","properties":{"id":"onsen_069","name":"奥津温泉","pref":"岡山県"},"geometry":{"type":"Point","coordinates":[133.920278,35.223333]}},{"type":"Feature","id":"onsen_070","properties":{"id":"onsen_070","name":"湯原温泉郷","pref":"岡山県"},"geometry":{"type":"Point","coordinates":[133.731944,35.203611]}},{"type":"Feature","id":"onsen_071","properties":{"id":"onsen_071","name":"三朝温泉","pref":"鳥取県"},"geometry":{"type":"Point","coordinates":[133.895,35.411389]}},{"type":"Feature","id":"onsen_072","properties":{"id":"onsen_072","name":"岩井温泉","pref":"鳥取県"},"geometry":{"type":"Point","coordinates":[134.362222,35.555555]}},{"type":"Feature","id":"onsen_073","properties":{"id":"onsen_073","name":"関金温泉","pref":"鳥取県"},"geometry":{"type":"Point","coordinates":[133.764167,35.363611]}},{"type":"Feature","id":"onsen_074","properties":{"id":"onsen_074","name":"玉造温泉","pref":"島根県"},"geometry":{"type":"Point","coordinates":[133.01,35.416389]}},{"type":"Feature","id":"onsen_075","properties":{"id":"onsen_075","name":"有福温泉","pref":"島根県"},"geometry":{"type":"Point","coordinates":[132.200556,34.940556]}},{"type":"Feature","id":"onsen_076","properties":{"id":"onsen_076","name":"温泉津温泉","pref":"島根県"},"geometry":{"type":"Point","coordinates":[132.346944,35.091944]}},{"type":"Feature","id":"onsen_077","properties":{"id":"onsen_077","name":"湯田温泉","pref":"山口県"},"geometry":{"type":"Point","coordinates":[131.455,34.164444]}},{"type":"Feature","id":"onsen_078","properties":{"id":"onsen_078","name":"長門湯本温泉","pref":"山口県"},"geometry":{"type":"Point","coordinates":[131.1725,34.328333]}},{"type":"Feature","id":"onsen_079","properties":{"id":"onsen_079","name":"祖谷温泉","pref":"徳島県"},"geometry":{"type":"Point","coordinates":[133.814722,33.920833]}},{"type":"Feature","id":"onsen_080","properties":{"id":"onsen_080","name":"道後温泉","pref":"愛媛県"},"geometry":{"type":"Point","coordinates":[132.788333,33.852778]}},{"type":"Feature","id":"onsen_081","properties":{"id":"onsen_081","name":"二日市温泉","pref":"福岡県"},"geometry":{"type":"Point","coordinates":[130.514444,33.490833]}},{"type":"Feature","id":"onsen_082","properties":{"id":"onsen_082","name":"嬉野温泉","pref":"佐賀県"},"geometry":{"type":"Point","coordinates":[129.985278,33.096944]}},{"type":"Feature","id":"onsen_083","properties":{"id":"onsen_083","name":"武雄温泉","pref":"佐賀県"},"geometry":{"type":"Point","coordinates":[130.014444,33.196389]}},{"type":"Feature","id":"onsen_084","properties":{"id":"onsen_084","name":"雲仙温泉","pref":"長崎県"},"geometry":{"type":"Point","coordinates":[130.260556,32.74]}},{"type":"Feature","id":"onsen_085","properties":{"id":"onsen_085","name":"小浜温泉","pref":"長崎県"},"geometry":{"type":"Point","coordinates":[130.207222,32.724167]}},{"type":"Feature","id":"onsen_086","properties":{"id":"onsen_086","name":"黒川温泉","pref":"熊本県"},"geometry":{"type":"Point","coordinates":[131.142778,33.0775]}},{"type":"Feature","id":"onsen_087","properties":{"id":"onsen_087","name":"地獄温泉","pref":"熊本県"},"geometry":{"type":"Point","coordinates":[131.035833,32.860555]}},{"type":"Feature","id":"onsen_088","properties":{"id":"onsen_088","name":"垂玉温泉","pref":"熊本県"},"geometry":{"type":"Point","coordinates":[131.035555,32.862222]}},{"type":"Feature","id":"onsen_089","properties":{"id":"onsen_089","name":"杖立温泉","pref":"熊本県"},"geometry":{"type":"Point","coordinates":[131.0325,33.183333]}},{"type":"Feature","id":"onsen_090","properties":{"id":"onsen_090","name":"日奈久温泉","pref":"熊本県"},"geometry":{"type":"Point","coordinates":[130.575,32.4325]}},{"type":"Feature","id":"onsen_091","properties":{"id":"onsen_091","name":"鉄輪温泉","pref":"大分県"},"geometry":{"type":"Point","coordinates":[131.475278,33.315833]}},{"type":"Feature","id":"onsen_092","properties":{"id":"onsen_092","name":"明礬温泉","pref":"大分県"},"geometry":{"type":"Point","coordinates":[131.451667,33.3175]}},{"type":"Feature","id":"onsen_093","properties":{"id":"onsen_093","name":"由布院温泉","pref":"大分県"},"geometry":{"type":"Point","coordinates":[131.3625,33.266389]}},{"type":"Feature","id":"onsen_094","properties":{"id":"onsen_094","name":"川底温泉","pref":"大分県"},"geometry":{"type":"Point","coordinates":[131.146667,33.186944]}},{"type":"Feature","id":"onsen_095","properties":{"id":"onsen_095","name":"長湯温泉","pref":"大分県"},"geometry":{"type":"Point","coordinates":[131.383611,33.069444]}},{"type":"Feature","id":"onsen_096","properties":{"id":"onsen_096","name":"京町温泉","pref":"宮崎県"},"geometry":{"type":"Point","coordinates":[130.754167,32.037778]}},{"type":"Feature","id":"onsen_097","properties":{"id":"onsen_097","name":"指宿温泉","pref":"鹿児島県"},"geometry":{"type":"Point","coordinates":[130.652222,31.229167]}},{"type":"Feature","id":"onsen_098","properties":{"id":"onsen_098","name":"霧島温泉郷","pref":"鹿児島県"},"geometry":{"type":"Point","coordinates":[130.828333,31.894444]}},{"type":"Feature","id":"onsen_099","properties":{"id":"onsen_099","name":"新川渓谷温泉郷","pref":"鹿児島県"},"geometry":{"type":"Point","coordinates":[130.756944,31.82]}},{"type":"Feature","id":"onsen_100","properties":{"id":"onsen_100","name":"栗野岳温泉","pref":"鹿児島県"},"geometry":{"type":"Point","coordinates":[130.78,31.955555]}}]}