{"type":"FeatureCollection","features":[{"type":"Feature","id":"shiro_001","properties":{"id":"shiro_001","name":"根室半島チャシ跡群","pref":"北海道","tags":["100名城"]},"geometry":{"type":"Point","coordinates":[145.814167,43.382778]}},{"type":"Feature","id":"shiro_002","properties":{"id":"shiro_002","name":"五稜郭","pref":"北海道","tags":["100名城"]},"geometry":{"type":"Point","coordinates":[140.756944,41.797222]}},{"type":"Feature","id":"shiro_003","properties":{"id":"shiro_003","name":"松前城","pref":"北海道","tags":["100名城"]},"geometry":{"type":"Point","coordinates":[140.108333,41.429722]}},{"type":"Feature","id":"shiro_004","properties":{"id":"shiro_004","name":"弘前城","pref":"青森県","tags":["100名城","現存12天守"]},"geometry":{"type":"Point","coordinates":[140.463889,40.6075]}},{"type":"Feature","id":"shiro_005","properties":{"id":"shiro_005","name":"根城","pref":"青森県","tags":["100名城"]},"geometry":{"type":"Point","coordinates":[141.460555,40.506111]}},{"type":"Feature","id":"shiro_006","properties":{"id":"shiro_006","name":"盛岡城","pref":"岩手県","tags":["100名城"]},"geometry":{"type":"Point","coordinates":[141.15,39.700556]}},{"type":"Feature","id":"shiro_007","properties":{"id":"shiro_007","name":"多賀城","pref":"宮城県","tags":["100名城"]},"geometry":{"type":"Point","coordinates":[140.988333,38.306667]}},{"type":"Feature","id":"shiro_008","properties":{"id":"shiro_008","name":"仙台城","pref":"宮城県","tags":["100名城"]},"geometry":{"type":"Point","coordinates":[140.855556,38.253056]}},{"type":"Feature","id":"shiro_009","properties":{"id":"shiro_009","name":"久保田城","pref":"秋田県","tags":["100名城"]},"geometry":{"type":"Point","coordinates":[140.123611,39.722778]}},{"type":"Feature","id":"shiro_010","properties":{"id":"shiro_010","name":"山形城","pref":"山形県","tags":["100名城"]},"geometry":{"type":"Point","coordinates":[140.328333,38.255555]}},{"type":"Feature","id":"shiro_011","properties":{"id":"shiro_011","name":"二本松城","pref":"福島県","tags":["100名城"]},"geometry":{"type":"Point","coordinates":[140.427778,37.599444]}},{"type":"Feature","id":"shiro_012","properties":{"id":"shiro_012","name":"会津若松城","pref":"福島県","tags":["100名城"]},"geometry":{"type":"Point","coordinates":[139.929722,37.4875]}},{"type":"Feature","id":"shiro_013","properties":{"id":"shiro_013","name":"白河小峰城","pref":"福島県","tags":["100名城"]},"geometry":{"type":"Point","coordinates":[140.213333,37.1325]}},{"type":"Feature","id":"shiro_014","properties":{"id":"shiro_014","name":"水戸城","pref":"茨城県","tags":["100名城"]},"geometry":{"type":"Point","coordinates":[140.476944,36.375278]}},{"type":"Feature","id":"shiro_015","properties":{"id":"shiro_015","name":"足利氏館(鑁阿寺)","pref":"栃木県","tags":["100名城"]},"geometry":{"type":"Point","coordinates":[139.452222,36.3375]}},{"type":"Feature","id":"shiro_016","properties":{"id":"shiro_016","name":"箕輪城","pref":"群馬県","tags":["100名城"]},"geometry":{"type":"Point","coordinates":[138.950833,36.405]}},{"type":"Feature","id":"shiro_017","properties":{"id":"shiro_017","name":"金山城","pref":"群馬県","tags":["100名城"]},"geometry":{"type":"Point","coordinates":[139.377778,36.316944]}},{"type":"Feature","id":"shiro_018","properties":{"id":"shiro_018","name":"鉢形城","pref":"埼玉県","tags":["100名城"]},"geometry":{"type":"Point","coordinates":[139.195833,36.109167]}},{"type":"Feature","id":"shiro_019","properties":{"id":"shiro_019","name":"川越城","pref":"埼玉県","tags":["100名城"]},"geometry":{"type":"Point","coordinates":[139.491389,35.924722]}},{"type":"Feature","id":"shiro_020","properties":{"id":"shiro_020","name":"佐倉城","pref":"千葉県","tags":["100名城"]},"geometry":{"type":"Point","coordinates":[140.215833,35.722222]}},{"type":"Feature","id":"shiro_021","properties":{"id":"shiro_021","name":"江戸城","pref":"東京都","tags":["100名城"]},"geometry":{"type":"Point","coordinates":[139.755278,35.687222]}},{"type":"Feature","id":"shiro_022","properties":{"id":"shiro_022","name":"八王子城","pref":"東京都","tags":["100名城"]},"geometry":{"type":"Point","coordinates":[139.252778,35.653056]}},{"type":"Feature","id":"shiro_023","properties":{"id":"shiro_023","name":"小田原城","pref":"神奈川県","tags":["100名城"]},"geometry":{"type":"Point","coordinates":[139.153611,35.251389]}},{"type":"Feature","id":"shiro_024","properties":{"id":"shiro_024","name":"武田氏館(武田神社)","pref":"山梨県","tags":["100名城"]},"geometry":{"type":"Point","coordinates":[138.576667,35.686667]}},{"type":"Feature","id":"shiro_025","properties":{"id":"shiro_025","name":"甲府城","pref":"山梨県","tags":["100名城"]},"geometry":{"type":"Point","coordinates":[138.571389,35.665278]}},{"type":"Feature","id":"shiro_026","properties":{"id":"shiro_026","name":"松代城","pref":"長野県","tags":["100名城"]},"geometry":{"type":"Point","coordinates":[138.195833,36.565833]}},{"type":"Feature","id":"shiro_027","properties":{"id":"shiro_027","name":"上田城","pref":"長野県","tags":["100名城"]},"geometry":{"type":"Point","coordinates":[138.244444,36.403611]}},{"type":"Feature","id":"shiro_028","properties":{"id":"shiro_028","name":"小諸城","pref":"長野県","tags":["100名城"]},"geometry":{"type":"Point","coordinates":[138.416944,36.326944]}},{"type":"Feature","id":"shiro_029","properties":{"id":"shiro_029","name":"松本城","pref":"長野県","tags":["100名城","現存12天守","国宝"]},"geometry":{"type":"Point","coordinates":[137.968889,36.238611]}},{"type":"Feature","id":"shiro_030","properties":{"id":"shiro_030","name":"高遠城","pref":"長野県","tags":["100名城"]},"geometry":{"type":"Point","coordinates":[138.0625,35.832778]}},{"type":"Feature","id":"shiro_031","properties":{"id":"shiro_031","name":"新発田城","pref":"新潟県","tags":["100名城"]},"geometry":{"type":"Point","coordinates":[139.325278,37.955278]}},{"type":"Feature","id":"shiro_032","properties":{"id":"shiro_032","name":"春日山城","pref":"新潟県","tags":["100名城"]},"geometry":{"type":"Point","coordinates":[138.205556,37.146667]}},{"type":"Feature","id":"shiro_033","properties":{"id":"shiro_033","name":"高岡城","pref":"富山県","tags":["100名城"]},"geometry":{"type":"Point","coordinates":[137.020833,36.749167]}},{"type":"Feature","id":"shiro_034","properties":{"id":"shiro_034","name":"七尾城","pref":"石川県","tags":["100名城"]},"geometry":{"type":"Point","coordinates":[136.983889,37.008611]}},{"type":"Feature","id":"shiro_035","properties":{"id":"shiro_035","name":"金沢城","pref":"石川県","tags":["100名城"]},"geometry":{"type":"Point","coordinates":[136.659444,36.563611]}},{"type":"Feature","id":"shiro_036","properties":{"id":"shiro_036","name":"丸岡城","pref":"福井県","tags":["100名城","現存12天守"]},"geometry":{"type":"Point","coordinates":[136.272222,36.151944]}},{"type":"Feature","id":"shiro_037","properties":{"id":"shiro_037","name":"一乗谷城","pref":"福井県","tags":["100名城"]},"geometry":{"type":"Point","coordinates":[136.308055,35.995833]}},{"type":"Feature","id":"shiro_038","properties":{"id":"shiro_038","name":"岩村城","pref":"岐阜県","tags":["100名城"]},"geometry":{"type":"Point","coordinates":[137.451111,35.359722]}},{"type":"Feature","id":"shiro_039","properties":{"id":"shiro_039","name":"岐阜城","pref":"岐阜県","tags":["100名城"]},"geometry":{"type":"Point","coordinates":[136.782222,35.433889]}},{"type":"Feature","id":"shiro_040","properties":{"id":"shiro_040","name":"山中城","pref":"静岡県","tags":["100名城"]},"geometry":{"type":"Point","coordinates":[138.991944,35.156111]}},{"type":"Feature","id":"shiro_041","properties":{"id":"shiro_041","name":"駿府城","pref":"静岡県","tags":["100名城"]},"geometry":{"type":"Point","coordinates":[138.383056,34.979167]}},{"type":"Feature","id":"shiro_042","properties":{"id":"shiro_042","name":"掛川城","pref":"静岡県","tags":["100名城"]},"geometry":{"type":"Point","coordinates":[138.013889,34.775]}},{"type":"Feature","id":"shiro_043","properties":{"id":"shiro_043","name":"犬山城","pref":"愛知県","tags":["100名城","現存12天守","国宝"]},"geometry":{"type":"Point","coordinates":[136.939167,35.388333]}},{"type":"Feature","id":"shiro_044","properties":{"id":"shiro_044","name":"名古屋城","pref":"愛知県","tags":["100名城"]},"geometry":{"type":"Point","coordinates":[136.899444,35.185833]}},{"type":"Feature","id":"shiro_045","properties":{"id":"shiro_045","name":"岡崎城","pref":"愛知県","tags":["100名城"]},"geometry":{"type":"Point","coordinates":[137.158889,34.956111]}},{"type":"Feature","id":"shiro_046","properties":{"id":"shiro_046","name":"長篠城","pref":"愛知県","tags":["100名城"]},"geometry":{"type":"Point","coordinates":[137.559722,34.922778]}},{"type":"Feature","id":"shiro_047","properties":{"id":"shiro_047","name":"伊賀上野城","pref":"三重県","tags":["100名城"]},"geometry":{"type":"Point","coordinates":[136.127222,34.77]}},{"type":"Feature","id":"shiro_048","properties":{"id":"shiro_048","name":"松阪城","pref":"三重県","tags":["100名城"]},"geometry":{"type":"Point","coordinates":[136.525555,34.575833]}},{"type":"Feature","id":"shiro_049","properties":{"id":"shiro_049","name":"小谷城","pref":"滋賀県","tags":["100名城"]},"geometry":{"type":"Point","coordinates":[136.276389,35.458889]}},{"type":"Feature","id":"shiro_050","properties":{"id":"shiro_050","name":"彦根城","pref":"滋賀県","tags":["100名城","現存12天守","国宝"]},"geometry":{"type":"Point","coordinates":[136.251667,35.276389]}},{"type":"Feature","id":"shiro_051","properties":{"id":"shiro_051","name":"安土城","pref":"滋賀県","tags":["100名城"]},"geometry":{"type":"Point","coordinates":[136.139167,35.155833]}},{"type":"Feature","id":"shiro_052","properties":{"id":"shiro_052","name":"観音寺城","pref":"滋賀県","tags":["100名城"]},"geometry":{"type":"Point","coordinates":[136.157778,35.145833]}},{"type":"Feature","id":"shiro_053","properties":{"id":"shiro_053","name":"二条城","pref":"京都","tags":["100名城"]},"geometry":{"type":"Point","coordinates":[135.747778,35.014167]}},{"type":"Feature","id":"shiro_054","properties":{"id":"shiro_054","name":"大阪城","pref":"大阪府","tags":["100名城"]},"geometry":{"type":"Point","coordinates":[135.525833,34.6875]}},{"type":"Feature","id":"shiro_055","properties":{"id":"shiro_055","name":"千早城","pref":"大阪府","tags":["100名城"]},"geometry":{"type":"Point","coordinates":[135.651389,34.416944]}},{"type":"Feature","id":"shiro_056","properties":{"id":"shiro_056","name":"竹田城","pref":"兵庫県","tags":["100名城"]},"geometry":{"type":"Point","coordinates":[134.828889,35.3]}},{"type":"Feature","id":"shiro_057","properties":{"id":"shiro_057","name":"篠山城","pref":"兵庫県","tags":["100名城"]},"geometry":{"type":"Point","coordinates":[135.2175,35.073056]}},{"type":"Feature","id":"shiro_058","properties":{"id":"shiro_058","name":"明石城","pref":"兵庫県","tags":["100名城"]},"geometry":{"type":"Point","coordinates":[134.991667,34.6525]}},{"type":"Feature","id":"shiro_059","properties":{"id":"shiro_059","name":"姫路城","pref":"兵庫県","tags":["100名城","現存12天守","国宝"]},"geometry":{"type":"Point","coordinates":[134.693889,34.839444]}},{"type":"Feature","id":"shiro_060","properties":{"id":"shiro_060","name":"赤穂城","pref":"兵庫県","tags":["100名城"]},"geometry":{"type":"Point","coordinates":[134.389167,34.745833]}},{"type":"Feature","id":"shiro_061","properties":{"id":"shiro_061","name":"高取城","pref":"奈良県","tags":["100名城"]},"geometry":{"type":"Point","coordinates":[135.8275,34.429167]}},{"type":"Feature","id":"shiro_062","properties":{"id":"shiro_062","name":"和歌山城","pref":"和歌山県","tags":["100名城"]},"geometry":{"type":"Point","coordinates":[135.171389,34.2275]}},{"type":"Feature","id":"shiro_063","properties":{"id":"shiro_063","name":"鳥取城","pref":"鳥取県","tags":["100名城"]},"geometry":{"type":"Point","coordinates":[134.241111,35.51]}},{"type":"Feature","id":"shiro_064","properties":{"id":"shiro_064","name":"松江城","pref":"島根県","tags":["100名城","現存12天守","国宝"]},"geometry":{"type":"Point","coordinates":[133.050556,35.475]}},{"type":"Feature","id":"shiro_065","properties":{"id":"shiro_065","name":"月山富田城","pref":"島根県","tags":["100名城"]},"geometry":{"type":"Point","coordinates":[133.184722,35.360833]}},{"type":"Feature","id":"shiro_066","properties":{"id":"shiro_066","name":"津和野城","pref":"島根県","tags":["100名城"]},"geometry":{"type":"Point","coordinates":[131.764167,34.46]}},{"type":"Feature","id":"shiro_067","properties":{"id":"shiro_067","name":"津山城","pref":"岡山県","tags":["100名城"]},"geometry":{"type":"Point","coordinates":[134.005,35.062778]}},{"type":"Feature","id":"shiro_068","properties":{"id":"shiro_068","name":"備中松山城","pref":"岡山県","tags":["100名城","現存12天守"]},"geometry":{"type":"Point","coordinates":[133.621944,34.808889]}},{"type":"Feature","id":"shiro_069","properties":{"id":"shiro_069","name":"鬼ノ城","pref":"岡山県","tags":["100名城"]},"geometry":{"type":"Point","coordinates":[133.767778,34.7275]}},{"type":"Feature","id":"shiro_070","properties":{"id":"shiro_070","name":"岡山城","pref":"岡山県","tags":["100名城"]},"geometry":{"type":"Point","coordinates":[133.936111,34.665]}},{"type":"Feature","id":"shiro_071","properties":{"id":"shiro_071","name":"福山城","pref":"広島県","tags":["100名城"]},"geometry":{"type":"Point","coordinates":[133.361111,34.490833]}},{"type":"Feature","id":"shiro_072","properties":{"id":"shiro_072","name":"郡山城","pref":"広島県","tags":["100名城"]},"geometry":{"type":"Point","coordinates":[132.709444,34.673611]}},{"type":"Feature","id":"shiro_073","properties":{"id":"shiro_073","name":"広島城","pref":"広島県","tags":["100名城"]},"geometry":{"type":"Point","coordinates":[132.459167,34.4025]}},{"type":"Feature","id":"shiro_074","properties":{"id":"shiro_074","name":"岩国城","pref":"山口県","tags":["100名城"]},"geometry":{"type":"Point","coordinates":[132.174167,34.175278]}},{"type":"Feature","id":"shiro_075","properties":{"id":"shiro_075","name":"萩城","pref":"山口県","tags":["100名城"]},"geometry":{"type":"Point","coordinates":[131.381389,34.421389]}},{"type":"Feature","id":"shiro_076","properties":{"id":"shiro_076","name":"徳島城","pref":"徳島県","tags":["100名城"]},"geometry":{"type":"Point","coordinates":[134.555,34.075278]}},{"type":"Feature","id":"shiro_077","properties":{"id":"shiro_077","name":"高松城","pref":"香川県","tags":["100名城"]},"geometry":{"type":"Point","coordinates":[134.051667,34.350278]}},{"type":"Feature","id":"shiro_078","properties":{"id":"shiro_078","name":"丸亀城","pref":"香川県","tags":["100名城","現存12天守"]},"geometry":{"type":"Point","coordinates":[133.800556,34.286111]}},{"type":"Feature","id":"shiro_079","properties":{"id":"shiro_079","name":"今治城","pref":"愛媛県","tags":["100名城"]},"geometry":{"type":"Point","coordinates":[133.006944,34.063333]}},{"type":"Feature","id":"shiro_080","properties":{"id":"shiro_080","name":"湯築城","pref":"愛媛県","tags":["100名城"]},"geometry":{"type":"Point","coordinates":[132.786389,33.848611]}},{"type":"Feature","id":"shiro_081","properties":{"id":"shiro_081","name":"松山城","pref":"愛媛県","tags":["100名城","現存12天守"]},"geometry":{"type":"Point","coordinates":[132.765556,33.845556]}},{"type":"Feature","id":"shiro_082","properties":{"id":"shiro_082","name":"大洲城","pref":"愛媛県","tags":["100名城"]},"geometry":{"type":"Point","coordinates":[132.541111,33.509444]}},{"type":"Feature","id":"shiro_083","properties":{"id":"shiro_083","name":"宇和島城","pref":"愛媛県","tags":["100名城","現存12天守"]},"geometry":{"type":"Point","coordinates":[132.565,33.219167]}},{"type":"Feature","id":"shiro_084","properties":{"id":"shiro_084","name":"高知城","pref":"高知県","tags":["100名城","現存12天守"]},"geometry":{"type":"Point","coordinates":[133.531111,33.560833]}},{"type":"Feature","id":"shiro_085","properties":{"id":"shiro_085","name":"福岡城","pref":"福岡県","tags":["100名城"]},"geometry":{"type":"Point","coordinates":[130.383056,33.584722]}},{"type":"Feature","id":"shiro_086","properties":{"id":"shiro_086","name":"大野城","pref":"福岡県","tags":["100名城"]},"geometry":{"type":"Point","coordinates":[130.523055,33.539722]}},{"type":"Feature","id":"shiro_087","properties":{"id":"shiro_087","name":"名護屋城","pref":"佐賀県","tags":["100名城"]},"geometry":{"type":"Point","coordinates":[129.869167,33.530278]}},{"type":"Feature","id":"shiro_088","properties":{"id":"shiro_088","name":"吉野ヶ里","pref":"佐賀県","tags":["100名城"]},"geometry":{"type":"Point","coordinates":[130.383333,33.324722]}},{"type":"Feature","id":"shiro_089","properties":{"id":"shiro_089","name":"佐賀城","pref":"佐賀県","tags":["100名城"]},"geometry":{"type":"Point","coordinates":[130.302778,33.245278]}},{"type":"Feature","id":"shiro_090","properties":{"id":"shiro_090","name":"平戸城","pref":"長崎県","tags":["100名城"]},"geometry":{"type":"Point","coordinates":[129.5575,33.368333]}},{"type":"Feature","id":"shiro_091","properties":{"id":"shiro_091","name":"島原城","pref":"長崎県","tags":["100名城"]},"geometry":{"type":"Point","coordinates":[130.367222,32.789167]}},{"type":"Feature","id":"shiro_092","properties":{"id":"shiro_092","name":"熊本城","pref":"熊本県","tags":["100名城"]},"geometry":{"type":"Point","coordinates":[130.705833,32.806111]}},{"type":"Feature","id":"shiro_093","properties":{"id":"shiro_093","name":"人吉城","pref":"熊本県","tags":["100名城"]},"geometry":{"type":"Point","coordinates":[130.766389,32.211111]}},{"type":"Feature","id":"shiro_094","properties":{"id":"shiro_094","name":"大分府内城","pref":"大分県","tags":["100名城"]},"geometry":{"type":"Point","coordinates":[131.611389,33.240555]}},{"type":"Feature","id":"shiro_095","properties":{"id":"shiro_095","name":"岡城","pref":"大分県","tags":["100名城"]},"geometry":{"type":"Point","coordinates":[131.407778,32.969167]}},{"type":"Feature","id":"shiro_096","properties":{"id":"shiro_096","name":"飫肥城","pref":"宮崎県","tags":["100名城"]},"geometry":{"type":"Point","coordinates":[131.35,31.628889]}},{"type":"Feature","id":"shiro_097","properties":{"id":"shiro_097","name":"鹿児島城(黎明館)","pref":"鹿児島県","tags":["100名城"]},"geometry":{"type":"Point","coordinates":[130.554722,31.598611]}},{"type":"Feature","id":"shiro_098","properties":{"id":"shiro_098","name":"今帰仁城","pref":"沖縄県","tags":["100名城"]},"geometry":{"type":"Point","coordinates":[127.929722,26.691111]}},{"type":"Feature","id":"shiro_099","properties":{"id":"shiro_099","name":"中城城","pref":"沖縄県","tags":["100名城"]},"geometry":{"type":"Point","coordinates":[127.801111,26.283889]}},{"type":"Feature","id":"shiro_100","properties":{"id":"shiro_100","name":"首里城","pref":"沖縄県","tags":["100名城"]},"geometry":{"type":"Point","coordinates":[127.719444,26.216944]}}]}