{"type":"FeatureCollection","features":[{"type":"Feature","id":"air_001","properties":{"id":"air_001","name":"嘉手納飛行場","pref":"","layer":"airport"},"geometry":{"type":"Point","coordinates":[127.7675,26.3556]}},{"type":"Feature","id":"air_002","properties":{"id":"air_002","name":"横田飛行場","pref":"","layer":"airport"},"geometry":{"type":"Point","coordinates":[139.349093,35.749093]}},{"type":"Feature","id":"air_003","properties":{"id":"air_003","name":"青森空港","pref":"","layer":"airport"},"geometry":{"type":"Point","coordinates":[140.689686,40.734052]}},{"type":"Feature","id":"air_004","properties":{"id":"air_004","name":"大島空港","pref":"","layer":"airport"},"geometry":{"type":"Point","coordinates":[139.360654,34.782731]}},{"type":"Feature","id":"air_005","properties":{"id":"air_005","name":"沖永良部空港","pref":"","layer":"airport"},"geometry":{"type":"Point","coordinates":[128.705131,27.431463]}},{"type":"Feature","id":"air_006","properties":{"id":"air_006","name":"壱岐空港","pref":"","layer":"airport"},"geometry":{"type":"Point","coordinates":[129.785263,33.749026]}},{"type":"Feature","id":"air_007","properties":{"id":"air_007","name":"対馬空港","pref":"","layer":"airport"},"geometry":{"type":"Point","coordinates":[129.331353,34.284574]}},{"type":"Feature","id":"air_008","properties":{"id":"air_008","name":"航空自衛隊 岐阜基地","pref":"","layer":"airport"},"geometry":{"type":"Point","coordinates":[136.869995,35.3941]}},{"type":"Feature","id":"air_009","properties":{"id":"air_009","name":"八戸航空基地","pref":"","layer":"airport"},"geometry":{"type":"Point","coordinates":[141.468868,40.554199]}},{"type":"Feature","id":"air_010","properties":{"id":"air_010","name":"いわて花巻空港","pref":"","layer":"airport"},"geometry":{"type":"Point","coordinates":[141.13531,39.427169]}},{"type":"Feature","id":"air_011","properties":{"id":"air_011","name":"松山空港","pref":"","layer":"airport"},"geometry":{"type":"Point","coordinates":[132.699947,33.82734]}},{"type":"Feature","id":"air_012","properties":{"id":"air_012","name":"中部国際空港セントレア","pref":"","layer":"airport"},"geometry":{"type":"Point","coordinates":[136.811347,34.858579]}},{"type":"Feature","id":"air_013","properties":{"id":"air_013","name":"県営名古屋空港","pref":"","layer":"airport"},"geometry":{"type":"Point","coordinates":[136.923816,35.25575]}},{"type":"Feature","id":"air_014","properties":{"id":"air_014","name":"富士山静岡空港","pref":"","layer":"airport"},"geometry":{"type":"Point","coordinates":[138.189059,34.796366]}},{"type":"Feature","id":"air_015","properties":{"id":"air_015","name":"信州まつもと空港","pref":"","layer":"airport"},"geometry":{"type":"Point","coordinates":[137.92377,36.166289]}},{"type":"Feature","id":"air_016","properties":{"id":"air_016","name":"福井空港","pref":"","layer":"airport"},"geometry":{"type":"Point","coordinates":[136.223092,36.143161]}},{"type":"Feature","id":"air_017","properties":{"id":"air_017","name":"能登空港","pref":"","layer":"airport"},"geometry":{"type":"Point","coordinates":[136.964907,37.293794]}},{"type":"Feature","id":"air_018","properties":{"id":"air_018","name":"富山空港","pref":"","layer":"airport"},"geometry":{"type":"Point","coordinates":[137.187883,36.648976]}},{"type":"Feature","id":"air_019","properties":{"id":"air_019","name":"新潟空港","pref":"","layer":"airport"},"geometry":{"type":"Point","coordinates":[139.109323,37.954515]}},{"type":"Feature","id":"air_020","properties":{"id":"air_020","name":"利尻空港","pref":"","layer":"airport"},"geometry":{"type":"Point","coordinates":[141.191041,45.24327]}},{"type":"Feature","id":"air_021","properties":{"id":"air_021","name":"礼文空港","pref":"","layer":"airport"},"geometry":{"type":"Point","coordinates":[141.039348,45.454974]}},{"type":"Feature","id":"air_022","properties":{"id":"air_022","name":"新千歳空港","pref":"","layer":"airport"},"geometry":{"type":"Point","coordinates":[141.683287,42.783996]}},{"type":"Feature","id":"air_023","properties":{"id":"air_023","name":"紋別空港","pref":"","layer":"airport"},"geometry":{"type":"Point","coordinates":[143.405285,44.302651]}},{"type":"Feature","id":"air_024","properties":{"id":"air_024","name":"稚内空港","pref":"","layer":"airport"},"geometry":{"type":"Point","coordinates":[141.799372,45.403769]}},{"type":"Feature","id":"air_025","properties":{"id":"air_025","name":"とかち帯広空港","pref":"","layer":"airport"},"geometry":{"type":"Point","coordinates":[143.217933,42.731298]}},{"type":"Feature","id":"air_026","properties":{"id":"air_026","name":"釧路空港","pref":"","layer":"airport"},"geometry":{"type":"Point","coordinates":[144.192621,43.042864]}},{"type":"Feature","id":"air_027","properties":{"id":"air_027","name":"函館空港","pref":"","layer":"airport"},"geometry":{"type":"Point","coordinates":[140.823838,41.770266]}},{"type":"Feature","id":"air_028","properties":{"id":"air_028","name":"札幌丘珠空港","pref":"","layer":"airport"},"geometry":{"type":"Point","coordinates":[141.381462,43.116365]}},{"type":"Feature","id":"air_029","properties":{"id":"air_029","name":"中標津空港","pref":"","layer":"airport"},"geometry":{"type":"Point","coordinates":[144.957086,43.576852]}},{"type":"Feature","id":"air_030","properties":{"id":"air_030","name":"山形空港","pref":"","layer":"airport"},"geometry":{"type":"Point","coordinates":[140.369999,38.411677]}},{"type":"Feature","id":"air_031","properties":{"id":"air_031","name":"庄内空港","pref":"","layer":"airport"},"geometry":{"type":"Point","coordinates":[139.784211,38.812781]}},{"type":"Feature","id":"air_032","properties":{"id":"air_032","name":"大館能代空港","pref":"","layer":"airport"},"geometry":{"type":"Point","coordinates":[140.371715,40.193419]}},{"type":"Feature","id":"air_033","properties":{"id":"air_033","name":"秋田空港","pref":"","layer":"airport"},"geometry":{"type":"Point","coordinates":[140.217856,39.614294]}},{"type":"Feature","id":"air_034","properties":{"id":"air_034","name":"仙台空港","pref":"","layer":"airport"},"geometry":{"type":"Point","coordinates":[140.914425,38.137787]}},{"type":"Feature","id":"air_035","properties":{"id":"air_035","name":"三沢空港","pref":"","layer":"airport"},"geometry":{"type":"Point","coordinates":[141.368822,40.701358]}},{"type":"Feature","id":"air_036","properties":{"id":"air_036","name":"八丈島空港","pref":"","layer":"airport"},"geometry":{"type":"Point","coordinates":[139.785622,33.114848]}},{"type":"Feature","id":"air_037","properties":{"id":"air_037","name":"三宅島空港","pref":"","layer":"airport"},"geometry":{"type":"Point","coordinates":[139.559667,34.07219]}},{"type":"Feature","id":"air_038","properties":{"id":"air_038","name":"南紀白浜空港","pref":"","layer":"airport"},"geometry":{"type":"Point","coordinates":[135.364875,33.662424]}},{"type":"Feature","id":"air_039","properties":{"id":"air_039","name":"但馬飛行場","pref":"","layer":"airport"},"geometry":{"type":"Point","coordinates":[134.787036,35.512712]}},{"type":"Feature","id":"air_040","properties":{"id":"air_040","name":"岡山空港","pref":"","layer":"airport"},"geometry":{"type":"Point","coordinates":[133.855539,34.757147]}},{"type":"Feature","id":"air_041","properties":{"id":"air_041","name":"山口宇部空港","pref":"","layer":"airport"},"geometry":{"type":"Point","coordinates":[131.279181,33.930108]}},{"type":"Feature","id":"air_042","properties":{"id":"air_042","name":"広島空港","pref":"","layer":"airport"},"geometry":{"type":"Point","coordinates":[132.921417,34.437472]}},{"type":"Feature","id":"air_043","properties":{"id":"air_043","name":"隠岐空港","pref":"","layer":"airport"},"geometry":{"type":"Point","coordinates":[133.323242,36.178712]}},{"type":"Feature","id":"air_044","properties":{"id":"air_044","name":"石見空港","pref":"","layer":"airport"},"geometry":{"type":"Point","coordinates":[131.790976,34.676408]}},{"type":"Feature","id":"air_045","properties":{"id":"air_045","name":"米子鬼太郎空港","pref":"","layer":"airport"},"geometry":{"type":"Point","coordinates":[133.238909,35.493345]}},{"type":"Feature","id":"air_046","properties":{"id":"air_046","name":"鳥取砂丘コナン空港","pref":"","layer":"airport"},"geometry":{"type":"Point","coordinates":[134.165922,35.528742]}},{"type":"Feature","id":"air_047","properties":{"id":"air_047","name":"与論空港","pref":"","layer":"airport"},"geometry":{"type":"Point","coordinates":[128.401701,27.043839]}},{"type":"Feature","id":"air_048","properties":{"id":"air_048","name":"徳之島子宝空港","pref":"","layer":"airport"},"geometry":{"type":"Point","coordinates":[128.882138,27.835353]}},{"type":"Feature","id":"air_049","properties":{"id":"air_049","name":"喜界空港","pref":"","layer":"airport"},"geometry":{"type":"Point","coordinates":[129.927888,28.321546]}},{"type":"Feature","id":"air_050","properties":{"id":"air_050","name":"屋久島空港","pref":"","layer":"airport"},"geometry":{"type":"Point","coordinates":[130.659189,30.385545]}},{"type":"Feature","id":"air_051","properties":{"id":"air_051","name":"種子島空港","pref":"","layer":"airport"},"geometry":{"type":"Point","coordinates":[130.99161,30.604636]}},{"type":"Feature","id":"air_052","properties":{"id":"air_052","name":"奄美空港","pref":"","layer":"airport"},"geometry":{"type":"Point","coordinates":[129.712251,28.431206]}},{"type":"Feature","id":"air_053","properties":{"id":"air_053","name":"鹿児島空港","pref":"","layer":"airport"},"geometry":{"type":"Point","coordinates":[130.71944,31.803247]}},{"type":"Feature","id":"air_054","properties":{"id":"air_054","name":"宮崎空港","pref":"","layer":"airport"},"geometry":{"type":"Point","coordinates":[131.447944,31.876055]}},{"type":"Feature","id":"air_055","properties":{"id":"air_055","name":"熊本空港","pref":"","layer":"airport"},"geometry":{"type":"Point","coordinates":[130.852386,32.836252]}},{"type":"Feature","id":"air_056","properties":{"id":"air_056","name":"天草空港","pref":"","layer":"airport"},"geometry":{"type":"Point","coordinates":[130.158655,32.482191]}},{"type":"Feature","id":"air_057","properties":{"id":"air_057","name":"五島福江空港","pref":"","layer":"airport"},"geometry":{"type":"Point","coordinates":[128.832952,32.666802]}},{"type":"Feature","id":"air_058","properties":{"id":"air_058","name":"長崎空港","pref":"","layer":"airport"},"geometry":{"type":"Point","coordinates":[129.913497,32.917184]}},{"type":"Feature","id":"air_059","properties":{"id":"air_059","name":"与那国空港","pref":"","layer":"airport"},"geometry":{"type":"Point","coordinates":[122.979364,24.467304]}},{"type":"Feature","id":"air_060","properties":{"id":"air_060","name":"波照間空港","pref":"","layer":"airport"},"geometry":{"type":"Point","coordinates":[123.805655,24.059712]}},{"type":"Feature","id":"air_061","properties":{"id":"air_061","name":"北大東空港","pref":"","layer":"airport"},"geometry":{"type":"Point","coordinates":[131.326715,25.944638]}},{"type":"Feature","id":"air_062","properties":{"id":"air_062","name":"南大東空港","pref":"","layer":"airport"},"geometry":{"type":"Point","coordinates":[131.263528,25.846503]}},{"type":"Feature","id":"air_063","properties":{"id":"air_063","name":"粟国空港","pref":"","layer":"airport"},"geometry":{"type":"Point","coordinates":[127.240005,26.592755]}},{"type":"Feature","id":"air_064","properties":{"id":"air_064","name":"伊江島空港","pref":"","layer":"airport"},"geometry":{"type":"Point","coordinates":[127.786928,26.722624]}},{"type":"Feature","id":"air_065","properties":{"id":"air_065","name":"下地島空港","pref":"","layer":"airport"},"geometry":{"type":"Point","coordinates":[125.145767,24.824176]}},{"type":"Feature","id":"air_066","properties":{"id":"air_066","name":"宮古空港","pref":"","layer":"airport"},"geometry":{"type":"Point","coordinates":[125.294813,24.78238]}},{"type":"Feature","id":"air_067","properties":{"id":"air_067","name":"佐渡空港","pref":"","layer":"airport"},"geometry":{"type":"Point","coordinates":[138.414076,38.061085]}},{"type":"Feature","id":"air_068","properties":{"id":"air_068","name":"北九州空港","pref":"","layer":"airport"},"geometry":{"type":"Point","coordinates":[131.033312,33.838969]}},{"type":"Feature","id":"air_069","properties":{"id":"air_069","name":"海上自衛隊大村航空基地","pref":"","layer":"airport"},"geometry":{"type":"Point","coordinates":[129.933565,32.927537]}},{"type":"Feature","id":"air_070","properties":{"id":"air_070","name":"石垣空港","pref":"","layer":"airport"},"geometry":{"type":"Point","coordinates":[124.245311,24.396716]}},{"type":"Feature","id":"air_071","properties":{"id":"air_071","name":"高松空港","pref":"","layer":"airport"},"geometry":{"type":"Point","coordinates":[134.015077,34.21519]}},{"type":"Feature","id":"air_072","properties":{"id":"air_072","name":"那覇空港","pref":"","layer":"airport"},"geometry":{"type":"Point","coordinates":[127.644273,26.196651]}},{"type":"Feature","id":"air_073","properties":{"id":"air_073","name":"奥尻空港","pref":"","layer":"airport"},"geometry":{"type":"Point","coordinates":[139.433139,42.071527]}},{"type":"Feature","id":"air_074","properties":{"id":"air_074","name":"茨城空港","pref":"","layer":"airport"},"geometry":{"type":"Point","coordinates":[140.416824,36.18255]}},{"type":"Feature","id":"air_075","properties":{"id":"air_075","name":"南鳥島航空基地","pref":"","layer":"airport"},"geometry":{"type":"Point","coordinates":[153.979089,24.289794]}},{"type":"Feature","id":"air_076","properties":{"id":"air_076","name":"硫黄島飛行場","pref":"","layer":"airport"},"geometry":{"type":"Point","coordinates":[141.322788,24.785163]}},{"type":"Feature","id":"air_077","properties":{"id":"air_077","name":"旭川空港","pref":"","layer":"airport"},"geometry":{"type":"Point","coordinates":[142.44705,43.668685]}},{"type":"Feature","id":"air_078","properties":{"id":"air_078","name":"福岡空港","pref":"","layer":"airport"},"geometry":{"type":"Point","coordinates":[130.449452,33.586807]}},{"type":"Feature","id":"air_079","properties":{"id":"air_079","name":"岩国錦帯橋空港","pref":"","layer":"airport"},"geometry":{"type":"Point","coordinates":[132.235852,34.158986]}},{"type":"Feature","id":"air_080","properties":{"id":"air_080","name":"久米島空港","pref":"","layer":"airport"},"geometry":{"type":"Point","coordinates":[126.714287,26.363975]}},{"type":"Feature","id":"air_081","properties":{"id":"air_081","name":"神戸空港","pref":"","layer":"airport"},"geometry":{"type":"Point","coordinates":[135.224672,34.634099]}},{"type":"Feature","id":"air_082","properties":{"id":"air_082","name":"大分空港","pref":"","layer":"airport"},"geometry":{"type":"Point","coordinates":[131.735218,33.48012]}},{"type":"Feature","id":"air_083","properties":{"id":"air_083","name":"福島空港","pref":"","layer":"airport"},"geometry":{"type":"Point","coordinates":[140.429444,37.228022]}},{"type":"Feature","id":"air_084","properties":{"id":"air_084","name":"徳島阿波おどり空港","pref":"","layer":"airport"},"geometry":{"type":"Point","coordinates":[134.606398,34.132925]}},{"type":"Feature","id":"air_085","properties":{"id":"air_085","name":"多良間空港","pref":"","layer":"airport"},"geometry":{"type":"Point","coordinates":[124.675902,24.653756]}},{"type":"Feature","id":"air_086","properties":{"id":"air_086","name":"成田国際空港","pref":"","layer":"airport"},"geometry":{"type":"Point","coordinates":[140.383538,35.775892]}},{"type":"Feature","id":"air_087","properties":{"id":"air_087","name":"九州佐賀国際空港","pref":"","layer":"airport"},"geometry":{"type":"Point","coordinates":[130.304496,33.149416]}},{"type":"Feature","id":"air_088","properties":{"id":"air_088","name":"出雲空港","pref":"","layer":"airport"},"geometry":{"type":"Point","coordinates":[132.8892,35.413325]}},{"type":"Feature","id":"air_089","properties":{"id":"air_089","name":"慶良間空港","pref":"","layer":"airport"},"geometry":{"type":"Point","coordinates":[127.293343,26.167883]}},{"type":"Feature","id":"air_090","properties":{"id":"air_090","name":"厚木海軍飛行場","pref":"","layer":"airport"},"geometry":{"type":"Point","coordinates":[139.445636,35.45452]}},{"type":"Feature","id":"air_091","properties":{"id":"air_091","name":"関西国際空港","pref":"","layer":"airport"},"geometry":{"type":"Point","coordinates":[135.233081,34.43441]}},{"type":"Feature","id":"air_092","properties":{"id":"air_092","name":"高知龍馬空港","pref":"","layer":"airport"},"geometry":{"type":"Point","coordinates":[133.668988,33.546346]}},{"type":"Feature","id":"air_093","properties":{"id":"air_093","name":"小松飛行場","pref":"","layer":"airport"},"geometry":{"type":"Point","coordinates":[136.405073,36.393772]}},{"type":"Feature","id":"air_094","properties":{"id":"air_094","name":"女満別空港","pref":"","layer":"airport"},"geometry":{"type":"Point","coordinates":[144.163594,43.880871]}},{"type":"Feature","id":"air_095","properties":{"id":"air_095","name":"東京国際空港","pref":"","layer":"airport"},"geometry":{"type":"Point","coordinates":[139.789858,35.54571]}},{"type":"Feature","id":"air_096","properties":{"id":"air_096","name":"大阪国際空港","pref":"","layer":"airport"},"geometry":{"type":"Point","coordinates":[135.440357,34.784194]}},{"type":"Feature","id":"isl_001","properties":{"id":"isl_001","name":"利尻島","pref":"北海道","layer":"island"},"geometry":{"type":"Point","coordinates":[141.23,45.18]}},{"type":"Feature","id":"isl_002","properties":{"id":"isl_002","name":"礼文島","pref":"北海道","layer":"island"},"geometry":{"type":"Point","coordinates":[141.04,45.3]}},{"type":"Feature","id":"isl_003","properties":{"id":"isl_003","name":"奥尻島","pref":"北海道","layer":"island"},"geometry":{"type":"Point","coordinates":[139.51,42.17]}},{"type":"Feature","id":"isl_004","properties":{"id":"isl_004","name":"佐渡島","pref":"新潟県","layer":"island"},"geometry":{"type":"Point","coordinates":[138.37,38.02]}},{"type":"Feature","id":"isl_005","properties":{"id":"isl_005","name":"粟島","pref":"新潟県","layer":"island"},"geometry":{"type":"Point","coordinates":[139.25,38.46]}},{"type":"Feature","id":"isl_006","properties":{"id":"isl_006","name":"伊豆大島","pref":"東京都","layer":"island"},"geometry":{"type":"Point","coordinates":[139.38,34.75]}},{"type":"Feature","id":"isl_007","properties":{"id":"isl_007","name":"八丈島","pref":"東京都","layer":"island"},"geometry":{"type":"Point","coordinates":[139.8,33.11]}},{"type":"Feature","id":"isl_008","properties":{"id":"isl_008","name":"三宅島","pref":"東京都","layer":"island"},"geometry":{"type":"Point","coordinates":[139.53,34.08]}},{"type":"Feature","id":"isl_009","properties":{"id":"isl_009","name":"新島","pref":"東京都","layer":"island"},"geometry":{"type":"Point","coordinates":[139.27,34.37]}},{"type":"Feature","id":"isl_010","properties":{"id":"isl_010","name":"神津島","pref":"東京都","layer":"island"},"geometry":{"type":"Point","coordinates":[139.15,34.2]}},{"type":"Feature","id":"isl_011","properties":{"id":"isl_011","name":"父島","pref":"東京都","layer":"island"},"geometry":{"type":"Point","coordinates":[142.19,27.09]}},{"type":"Feature","id":"isl_012","properties":{"id":"isl_012","name":"母島","pref":"東京都","layer":"island"},"geometry":{"type":"Point","coordinates":[142.16,26.63]}},{"type":"Feature","id":"isl_013","properties":{"id":"isl_013","name":"淡路島","pref":"兵庫県","layer":"island"},"geometry":{"type":"Point","coordinates":[134.83,34.36]}},{"type":"Feature","id":"isl_014","properties":{"id":"isl_014","name":"小豆島","pref":"香川県","layer":"island"},"geometry":{"type":"Point","coordinates":[134.25,34.48]}},{"type":"Feature","id":"isl_015","properties":{"id":"isl_015","name":"直島","pref":"香川県","layer":"island"},"geometry":{"type":"Point","coordinates":[133.99,34.46]}},{"type":"Feature","id":"isl_016","properties":{"id":"isl_016","name":"隠岐島後","pref":"島根県","layer":"island"},"geometry":{"type":"Point","coordinates":[133.32,36.2]}},{"type":"Feature","id":"isl_017","properties":{"id":"isl_017","name":"中ノ島","pref":"島根県","layer":"island"},"geometry":{"type":"Point","coordinates":[133.1,36.1]}},{"type":"Feature","id":"isl_018","properties":{"id":"isl_018","name":"大三島","pref":"愛媛県","layer":"island"},"geometry":{"type":"Point","coordinates":[133.0,34.25]}},{"type":"Feature","id":"isl_019","properties":{"id":"isl_019","name":"因島","pref":"広島県","layer":"island"},"geometry":{"type":"Point","coordinates":[133.18,34.3]}},{"type":"Feature","id":"isl_020","properties":{"id":"isl_020","name":"周防大島","pref":"山口県","layer":"island"},"geometry":{"type":"Point","coordinates":[132.25,33.92]}},{"type":"Feature","id":"isl_021","properties":{"id":"isl_021","name":"対馬","pref":"長崎県","layer":"island"},"geometry":{"type":"Point","coordinates":[129.3,34.3]}},{"type":"Feature","id":"isl_022","properties":{"id":"isl_022","name":"壱岐島","pref":"長崎県","layer":"island"},"geometry":{"type":"Point","coordinates":[129.72,33.78]}},{"type":"Feature","id":"isl_023","properties":{"id":"isl_023","name":"福江島","pref":"長崎県","layer":"island"},"geometry":{"type":"Point","coordinates":[128.84,32.7]}},{"type":"Feature","id":"isl_024","properties":{"id":"isl_024","name":"中通島","pref":"長崎県","layer":"island"},"geometry":{"type":"Point","coordinates":[129.07,32.98]}},{"type":"Feature","id":"isl_025","properties":{"id":"isl_025","name":"平戸島","pref":"長崎県","layer":"island"},"geometry":{"type":"Point","coordinates":[129.55,33.36]}},{"type":"Feature","id":"isl_026","properties":{"id":"isl_026","name":"天草下島","pref":"熊本県","layer":"island"},"geometry":{"type":"Point","coordinates":[130.1,32.4]}},{"type":"Feature","id":"isl_027","properties":{"id":"isl_027","name":"種子島","pref":"鹿児島県","layer":"island"},"geometry":{"type":"Point","coordinates":[130.97,30.62]}},{"type":"Feature","id":"isl_028","properties":{"id":"isl_028","name":"屋久島","pref":"鹿児島県","layer":"island"},"geometry":{"type":"Point","coordinates":[130.51,30.34]}},{"type":"Feature","id":"isl_029","properties":{"id":"isl_029","name":"奄美大島","pref":"鹿児島県","layer":"island"},"geometry":{"type":"Point","coordinates":[129.37,28.32]}},{"type":"Feature","id":"isl_030","properties":{"id":"isl_030","name":"徳之島","pref":"鹿児島県","layer":"island"},"geometry":{"type":"Point","coordinates":[128.96,27.78]}},{"type":"Feature","id":"isl_031","properties":{"id":"isl_031","name":"沖永良部島","pref":"鹿児島県","layer":"island"},"geometry":{"type":"Point","coordinates":[128.57,27.37]}},{"type":"Feature","id":"isl_032","properties":{"id":"isl_032","name":"与論島","pref":"鹿児島県","layer":"island"},"geometry":{"type":"Point","coordinates":[128.41,27.04]}},{"type":"Feature","id":"isl_033","properties":{"id":"isl_033","name":"喜界島","pref":"鹿児島県","layer":"island"},"geometry":{"type":"Point","coordinates":[129.94,28.32]}},{"type":"Feature","id":"isl_034","properties":{"id":"isl_034","name":"石垣島","pref":"沖縄県","layer":"island"},"geometry":{"type":"Point","coordinates":[124.16,24.4]}},{"type":"Feature","id":"isl_035","properties":{"id":"isl_035","name":"宮古島","pref":"沖縄県","layer":"island"},"geometry":{"type":"Point","coordinates":[125.3,24.8]}},{"type":"Feature","id":"isl_036","properties":{"id":"isl_036","name":"西表島","pref":"沖縄県","layer":"island"},"geometry":{"type":"Point","coordinates":[123.8,24.36]}},{"type":"Feature","id":"isl_037","properties":{"id":"isl_037","name":"与那国島","pref":"沖縄県","layer":"island"},"geometry":{"type":"Point","coordinates":[123.0,24.47]}},{"type":"Feature","id":"isl_038","properties":{"id":"isl_038","name":"久米島","pref":"沖縄県","layer":"island"},"geometry":{"type":"Point","coordinates":[126.8,26.34]}},{"type":"Feature","id":"isl_039","properties":{"id":"isl_039","name":"伊江島","pref":"沖縄県","layer":"island"},"geometry":{"type":"Point","coordinates":[127.79,26.72]}},{"type":"Feature","id":"isl_040","properties":{"id":"isl_040","name":"渡嘉敷島","pref":"沖縄県","layer":"island"},"geometry":{"type":"Point","coordinates":[127.36,26.2]}},{"type":"Feature","id":"isl_041","properties":{"id":"isl_041","name":"座間味島","pref":"沖縄県","layer":"island"},"geometry":{"type":"Point","coordinates":[127.3,26.23]}},{"type":"Feature","id":"isl_042","properties":{"id":"isl_042","name":"波照間島","pref":"沖縄県","layer":"island"},"geometry":{"type":"Point","coordinates":[123.78,24.06]}},{"type":"Feature","id":"isl_043","properties":{"id":"isl_043","name":"多良間島","pref":"沖縄県","layer":"island"},"geometry":{"type":"Point","coordinates":[124.7,24.66]}},{"type":"Feature","id":"isl_044","properties":{"id":"isl_044","name":"南大東島","pref":"沖縄県","layer":"island"},"geometry":{"type":"Point","coordinates":[131.23,25.84]}},{"type":"Feature","id":"isl_045","properties":{"id":"isl_045","name":"北大東島","pref":"沖縄県","layer":"island"},"geometry":{"type":"Point","coordinates":[131.3,25.94]}}]}