{"type":"FeatureCollection","features":[{"type":"Feature","id":"yama_001","properties":{"id":"yama_001","name":"利尻山","pref":"北海道","altitude":1721,"tags":["百名山"]},"geometry":{"type":"Point","coordinates":[141.241944,45.178611]}},{"type":"Feature","id":"yama_002","properties":{"id":"yama_002","name":"羅臼岳","pref":"北海道","altitude":1661,"tags":["百名山"]},"geometry":{"type":"Point","coordinates":[145.122222,44.075833]}},{"type":"Feature","id":"yama_003","properties":{"id":"yama_003","name":"斜里岳","pref":"北海道","altitude":1547,"tags":["百名山"]},"geometry":{"type":"Point","coordinates":[144.717778,43.765555]}},{"type":"Feature","id":"yama_004","properties":{"id":"yama_004","name":"阿寒岳","pref":"北海道","altitude":1499,"tags":["百名山"]},"geometry":{"type":"Point","coordinates":[144.008889,43.386667]}},{"type":"Feature","id":"yama_005","properties":{"id":"yama_005","name":"大雪山","pref":"北海道","altitude":2291,"tags":["百名山"]},"geometry":{"type":"Point","coordinates":[142.854167,43.663611]}},{"type":"Feature","id":"yama_006","properties":{"id":"yama_006","name":"トムラウシ山","pref":"北海道","altitude":2141,"tags":["百名山"]},"geometry":{"type":"Point","coordinates":[142.848889,43.527222]}},{"type":"Feature","id":"yama_007","properties":{"id":"yama_007","name":"十勝岳","pref":"北海道","altitude":2077,"tags":["百名山"]},"geometry":{"type":"Point","coordinates":[142.686389,43.418056]}},{"type":"Feature","id":"yama_008","properties":{"id":"yama_008","name":"幌尻岳","pref":"北海道","altitude":2052,"tags":["百名山"]},"geometry":{"type":"Point","coordinates":[142.682778,42.719444]}},{"type":"Feature","id":"yama_009","properties":{"id":"yama_009","name":"後方羊蹄山","pref":"北海道","altitude":1898,"tags":["百名山"]},"geometry":{"type":"Point","coordinates":[140.811389,42.826667]}},{"type":"Feature","id":"yama_010","properties":{"id":"yama_010","name":"岩木山","pref":"青森県","altitude":1625,"tags":["百名山"]},"geometry":{"type":"Point","coordinates":[140.303055,40.655833]}},{"type":"Feature","id":"yama_011","properties":{"id":"yama_011","name":"八甲田山","pref":"青森県","altitude":1585,"tags":["百名山"]},"geometry":{"type":"Point","coordinates":[140.877222,40.658889]}},{"type":"Feature","id":"yama_012","properties":{"id":"yama_012","name":"八幡平","pref":"岩手県","altitude":1613,"tags":["百名山"]},"geometry":{"type":"Point","coordinates":[140.854167,39.957778]}},{"type":"Feature","id":"yama_013","properties":{"id":"yama_013","name":"岩手山","pref":"岩手県","altitude":2038,"tags":["百名山"]},"geometry":{"type":"Point","coordinates":[141.001111,39.8525]}},{"type":"Feature","id":"yama_014","properties":{"id":"yama_014","name":"早池峰山","pref":"岩手県","altitude":1917,"tags":["百名山"]},"geometry":{"type":"Point","coordinates":[141.488611,39.558611]}},{"type":"Feature","id":"yama_015","properties":{"id":"yama_015","name":"鳥海山","pref":"山形県","altitude":2236,"tags":["百名山"]},"geometry":{"type":"Point","coordinates":[140.048889,39.099167]}},{"type":"Feature","id":"yama_016","properties":{"id":"yama_016","name":"月山","pref":"山形県","altitude":1984,"tags":["百名山"]},"geometry":{"type":"Point","coordinates":[140.026944,38.548889]}},{"type":"Feature","id":"yama_017","properties":{"id":"yama_017","name":"朝日岳","pref":"山形県","altitude":1871,"tags":["百名山"]},"geometry":{"type":"Point","coordinates":[139.922222,38.260556]}},{"type":"Feature","id":"yama_018","properties":{"id":"yama_018","name":"蔵王山","pref":"山形県","altitude":1841,"tags":["百名山"]},"geometry":{"type":"Point","coordinates":[140.44,38.143611]}},{"type":"Feature","id":"yama_019","properties":{"id":"yama_019","name":"飯豊山","pref":"福島県","altitude":2105,"tags":["百名山"]},"geometry":{"type":"Point","coordinates":[139.707222,37.854722]}},{"type":"Feature","id":"yama_020","properties":{"id":"yama_020","name":"吾妻山","pref":"山形県","altitude":2035,"tags":["百名山"]},"geometry":{"type":"Point","coordinates":[140.140833,37.738333]}},{"type":"Feature","id":"yama_021","properties":{"id":"yama_021","name":"安達太良山","pref":"福島県","altitude":1700,"tags":["百名山"]},"geometry":{"type":"Point","coordinates":[140.287778,37.621111]}},{"type":"Feature","id":"yama_022","properties":{"id":"yama_022","name":"磐梯山","pref":"福島県","altitude":1816,"tags":["百名山"]},"geometry":{"type":"Point","coordinates":[140.072222,37.600833]}},{"type":"Feature","id":"yama_023","properties":{"id":"yama_023","name":"会津駒ヶ岳","pref":"福島県","altitude":2133,"tags":["百名山"]},"geometry":{"type":"Point","coordinates":[139.353611,37.0475]}},{"type":"Feature","id":"yama_024","properties":{"id":"yama_024","name":"那須岳","pref":"栃木県","altitude":1915,"tags":["百名山"]},"geometry":{"type":"Point","coordinates":[139.962778,37.124722]}},{"type":"Feature","id":"yama_025","properties":{"id":"yama_025","name":"越後駒ヶ岳","pref":"新潟県","altitude":2003,"tags":["百名山"]},"geometry":{"type":"Point","coordinates":[139.075278,37.123611]}},{"type":"Feature","id":"yama_026","properties":{"id":"yama_026","name":"平ヶ岳","pref":"群馬県","altitude":2141,"tags":["百名山"]},"geometry":{"type":"Point","coordinates":[139.170833,37.001944]}},{"type":"Feature","id":"yama_027","properties":{"id":"yama_027","name":"巻機山","pref":"群馬県","altitude":1967,"tags":["百名山"]},"geometry":{"type":"Point","coordinates":[138.964167,36.978611]}},{"type":"Feature","id":"yama_028","properties":{"id":"yama_028","name":"燧ヶ岳","pref":"福島県","altitude":2356,"tags":["百名山"]},"geometry":{"type":"Point","coordinates":[139.285278,36.955]}},{"type":"Feature","id":"yama_029","properties":{"id":"yama_029","name":"至仏山","pref":"群馬県","altitude":2228,"tags":["百名山"]},"geometry":{"type":"Point","coordinates":[139.173333,36.903611]}},{"type":"Feature","id":"yama_030","properties":{"id":"yama_030","name":"谷川岳","pref":"群馬県","altitude":1977,"tags":["百名山"]},"geometry":{"type":"Point","coordinates":[138.93,36.837222]}},{"type":"Feature","id":"yama_031","properties":{"id":"yama_031","name":"雨飾山","pref":"新潟県","altitude":1963,"tags":["百名山"]},"geometry":{"type":"Point","coordinates":[137.9625,36.901944]}},{"type":"Feature","id":"yama_032","properties":{"id":"yama_032","name":"苗場山","pref":"新潟県","altitude":2145,"tags":["百名山"]},"geometry":{"type":"Point","coordinates":[138.690278,36.845833]}},{"type":"Feature","id":"yama_033","properties":{"id":"yama_033","name":"妙高山","pref":"新潟県","altitude":2454,"tags":["百名山"]},"geometry":{"type":"Point","coordinates":[138.113611,36.891389]}},{"type":"Feature","id":"yama_034","properties":{"id":"yama_034","name":"火打山","pref":"新潟県","altitude":2462,"tags":["百名山"]},"geometry":{"type":"Point","coordinates":[138.068056,36.922778]}},{"type":"Feature","id":"yama_035","properties":{"id":"yama_035","name":"高妻山","pref":"新潟県","altitude":2353,"tags":["百名山"]},"geometry":{"type":"Point","coordinates":[138.051944,36.8]}},{"type":"Feature","id":"yama_036","properties":{"id":"yama_036","name":"男体山","pref":"栃木県","altitude":2486,"tags":["百名山"]},"geometry":{"type":"Point","coordinates":[139.490833,36.765]}},{"type":"Feature","id":"yama_037","properties":{"id":"yama_037","name":"白根山","pref":"群馬県","altitude":2578,"tags":["百名山"]},"geometry":{"type":"Point","coordinates":[139.375833,36.798611]}},{"type":"Feature","id":"yama_038","properties":{"id":"yama_038","name":"皇海山","pref":"栃木県","altitude":2144,"tags":["百名山"]},"geometry":{"type":"Point","coordinates":[139.336944,36.69]}},{"type":"Feature","id":"yama_039","properties":{"id":"yama_039","name":"武尊山","pref":"群馬県","altitude":2158,"tags":["百名山"]},"geometry":{"type":"Point","coordinates":[139.1325,36.805278]}},{"type":"Feature","id":"yama_040","properties":{"id":"yama_040","name":"赤城山","pref":"群馬県","altitude":1828,"tags":["百名山"]},"geometry":{"type":"Point","coordinates":[139.193333,36.560278]}},{"type":"Feature","id":"yama_041","properties":{"id":"yama_041","name":"本白根山","pref":"群馬県","altitude":2171,"tags":["百名山"]},"geometry":{"type":"Point","coordinates":[138.531944,36.622778]}},{"type":"Feature","id":"yama_042","properties":{"id":"yama_042","name":"四阿山","pref":"長野県","altitude":2354,"tags":["百名山"]},"geometry":{"type":"Point","coordinates":[138.413056,36.541667]}},{"type":"Feature","id":"yama_043","properties":{"id":"yama_043","name":"浅間山","pref":"群馬県","altitude":2568,"tags":["百名山"]},"geometry":{"type":"Point","coordinates":[138.523055,36.406389]}},{"type":"Feature","id":"yama_044","properties":{"id":"yama_044","name":"筑波山","pref":"茨城県","altitude":877,"tags":["百名山"]},"geometry":{"type":"Point","coordinates":[140.106667,36.225278]}},{"type":"Feature","id":"yama_045","properties":{"id":"yama_045","name":"白馬岳","pref":"富山県","altitude":2932,"tags":["百名山"]},"geometry":{"type":"Point","coordinates":[137.758611,36.758611]}},{"type":"Feature","id":"yama_046","properties":{"id":"yama_046","name":"五龍岳","pref":"富山県","altitude":2814,"tags":["百名山"]},"geometry":{"type":"Point","coordinates":[137.752778,36.658333]}},{"type":"Feature","id":"yama_047","properties":{"id":"yama_047","name":"鹿島槍ヶ岳","pref":"富山県","altitude":2889,"tags":["百名山"]},"geometry":{"type":"Point","coordinates":[137.746944,36.624444]}},{"type":"Feature","id":"yama_048","properties":{"id":"yama_048","name":"剱岳","pref":"富山県","altitude":2999,"tags":["百名山"]},"geometry":{"type":"Point","coordinates":[137.616944,36.623333]}},{"type":"Feature","id":"yama_049","properties":{"id":"yama_049","name":"立山","pref":"富山県","altitude":3015,"tags":["百名山","3000m峰"]},"geometry":{"type":"Point","coordinates":[137.619722,36.575833]}},{"type":"Feature","id":"yama_050","properties":{"id":"yama_050","name":"薬師岳","pref":"富山県","altitude":2926,"tags":["百名山"]},"geometry":{"type":"Point","coordinates":[137.544722,36.468889]}},{"type":"Feature","id":"yama_051","properties":{"id":"yama_051","name":"黒部五郎岳","pref":"富山県","altitude":2840,"tags":["百名山"]},"geometry":{"type":"Point","coordinates":[137.54,36.3925]}},{"type":"Feature","id":"yama_052","properties":{"id":"yama_052","name":"水晶岳","pref":"富山県","altitude":2986,"tags":["百名山"]},"geometry":{"type":"Point","coordinates":[137.602778,36.426389]}},{"type":"Feature","id":"yama_053","properties":{"id":"yama_053","name":"鷲羽岳","pref":"富山県","altitude":2924,"tags":["百名山"]},"geometry":{"type":"Point","coordinates":[137.605278,36.403056]}},{"type":"Feature","id":"yama_054","properties":{"id":"yama_054","name":"槍ヶ岳","pref":"長野県","altitude":3180,"tags":["百名山","3000m峰"]},"geometry":{"type":"Point","coordinates":[137.6475,36.341944]}},{"type":"Feature","id":"yama_055","properties":{"id":"yama_055","name":"穂高岳","pref":"長野県","altitude":3190,"tags":["百名山","3000m峰"]},"geometry":{"type":"Point","coordinates":[137.648055,36.289167]}},{"type":"Feature","id":"yama_056","properties":{"id":"yama_056","name":"常念岳","pref":"長野県","altitude":2857,"tags":["百名山"]},"geometry":{"type":"Point","coordinates":[137.7275,36.325556]}},{"type":"Feature","id":"yama_057","properties":{"id":"yama_057","name":"笠ヶ岳","pref":"岐阜県","altitude":2898,"tags":["百名山"]},"geometry":{"type":"Point","coordinates":[137.550278,36.315556]}},{"type":"Feature","id":"yama_058","properties":{"id":"yama_058","name":"焼岳","pref":"長野県","altitude":2455,"tags":["百名山"]},"geometry":{"type":"Point","coordinates":[137.586944,36.226944]}},{"type":"Feature","id":"yama_059","properties":{"id":"yama_059","name":"乗鞍岳","pref":"岐阜県","altitude":3026,"tags":["百名山","3000m峰"]},"geometry":{"type":"Point","coordinates":[137.553611,36.106389]}},{"type":"Feature","id":"yama_060","properties":{"id":"yama_060","name":"御嶽山","pref":"長野県","altitude":3067,"tags":["百名山","3000m峰"]},"geometry":{"type":"Point","coordinates":[137.480278,35.892778]}},{"type":"Feature","id":"yama_061","properties":{"id":"yama_061","name":"美ヶ原","pref":"長野県","altitude":2034,"tags":["百名山"]},"geometry":{"type":"Point","coordinates":[138.1075,36.225833]}},{"type":"Feature","id":"yama_062","properties":{"id":"yama_062","name":"霧ヶ峰","pref":"長野県","altitude":1925,"tags":["百名山"]},"geometry":{"type":"Point","coordinates":[138.196667,36.103056]}},{"type":"Feature","id":"yama_063","properties":{"id":"yama_063","name":"蓼科山","pref":"長野県","altitude":2531,"tags":["百名山"]},"geometry":{"type":"Point","coordinates":[138.295,36.103611]}},{"type":"Feature","id":"yama_064","properties":{"id":"yama_064","name":"八ヶ岳","pref":"長野県","altitude":2899,"tags":["百名山"]},"geometry":{"type":"Point","coordinates":[138.37,35.970833]}},{"type":"Feature","id":"yama_065","properties":{"id":"yama_065","name":"両神山","pref":"埼玉県","altitude":1723,"tags":["百名山"]},"geometry":{"type":"Point","coordinates":[138.841389,36.023333]}},{"type":"Feature","id":"yama_066","properties":{"id":"yama_066","name":"雲取山","pref":"埼玉県","altitude":2017,"tags":["百名山"]},"geometry":{"type":"Point","coordinates":[138.943889,35.855556]}},{"type":"Feature","id":"yama_067","properties":{"id":"yama_067","name":"甲武信ヶ岳","pref":"埼玉県","altitude":2475,"tags":["百名山"]},"geometry":{"type":"Point","coordinates":[138.728889,35.908889]}},{"type":"Feature","id":"yama_068","properties":{"id":"yama_068","name":"金峰山","pref":"山梨県","altitude":2599,"tags":["百名山"]},"geometry":{"type":"Point","coordinates":[138.625278,35.871389]}},{"type":"Feature","id":"yama_069","properties":{"id":"yama_069","name":"瑞牆山","pref":"山梨県","altitude":2230,"tags":["百名山"]},"geometry":{"type":"Point","coordinates":[138.591944,35.893333]}},{"type":"Feature","id":"yama_070","properties":{"id":"yama_070","name":"大菩薩嶺","pref":"山梨県","altitude":2057,"tags":["百名山"]},"geometry":{"type":"Point","coordinates":[138.845555,35.748889]}},{"type":"Feature","id":"yama_071","properties":{"id":"yama_071","name":"丹沢山","pref":"神奈川県","altitude":1673,"tags":["百名山"]},"geometry":{"type":"Point","coordinates":[139.138889,35.486389]}},{"type":"Feature","id":"yama_072","properties":{"id":"yama_072","name":"富士山","pref":"山梨県","altitude":3776,"tags":["百名山","3000m峰"]},"geometry":{"type":"Point","coordinates":[138.7275,35.360833]}},{"type":"Feature","id":"yama_073","properties":{"id":"yama_073","name":"天城山","pref":"静岡県","altitude":1406,"tags":["百名山"]},"geometry":{"type":"Point","coordinates":[139.001667,34.862778]}},{"type":"Feature","id":"yama_074","properties":{"id":"yama_074","name":"木曽駒ヶ岳","pref":"長野県","altitude":2956,"tags":["百名山"]},"geometry":{"type":"Point","coordinates":[137.804444,35.789444]}},{"type":"Feature","id":"yama_075","properties":{"id":"yama_075","name":"空木岳","pref":"長野県","altitude":2864,"tags":["百名山"]},"geometry":{"type":"Point","coordinates":[137.817222,35.718889]}},{"type":"Feature","id":"yama_076","properties":{"id":"yama_076","name":"恵那山","pref":"長野県","altitude":2191,"tags":["百名山"]},"geometry":{"type":"Point","coordinates":[137.597222,35.443611]}},{"type":"Feature","id":"yama_077","properties":{"id":"yama_077","name":"甲斐駒ヶ岳","pref":"山梨県","altitude":2967,"tags":["百名山"]},"geometry":{"type":"Point","coordinates":[138.236667,35.758055]}},{"type":"Feature","id":"yama_078","properties":{"id":"yama_078","name":"仙丈ヶ岳","pref":"山梨県","altitude":3033,"tags":["百名山","3000m峰"]},"geometry":{"type":"Point","coordinates":[138.183611,35.72]}},{"type":"Feature","id":"yama_079","properties":{"id":"yama_079","name":"鳳凰山","pref":"山梨県","altitude":2841,"tags":["百名山"]},"geometry":{"type":"Point","coordinates":[138.304722,35.701667]}},{"type":"Feature","id":"yama_080","properties":{"id":"yama_080","name":"北岳","pref":"山梨県","altitude":3193,"tags":["百名山","3000m峰"]},"geometry":{"type":"Point","coordinates":[138.238889,35.674444]}},{"type":"Feature","id":"yama_081","properties":{"id":"yama_081","name":"間ノ岳","pref":"山梨県","altitude":3190,"tags":["百名山","3000m峰"]},"geometry":{"type":"Point","coordinates":[138.228333,35.646111]}},{"type":"Feature","id":"yama_082","properties":{"id":"yama_082","name":"塩見岳","pref":"長野県","altitude":3047,"tags":["百名山","3000m峰"]},"geometry":{"type":"Point","coordinates":[138.183055,35.573889]}},{"type":"Feature","id":"yama_083","properties":{"id":"yama_083","name":"悪沢岳","pref":"静岡県","altitude":3141,"tags":["百名山","3000m峰"]},"geometry":{"type":"Point","coordinates":[138.1825,35.500833]}},{"type":"Feature","id":"yama_084","properties":{"id":"yama_084","name":"赤石岳","pref":"長野県","altitude":3121,"tags":["百名山","3000m峰"]},"geometry":{"type":"Point","coordinates":[138.157222,35.461111]}},{"type":"Feature","id":"yama_085","properties":{"id":"yama_085","name":"聖岳","pref":"長野県","altitude":3013,"tags":["百名山","3000m峰"]},"geometry":{"type":"Point","coordinates":[138.139722,35.422778]}},{"type":"Feature","id":"yama_086","properties":{"id":"yama_086","name":"光岳","pref":"静岡県","altitude":2592,"tags":["百名山"]},"geometry":{"type":"Point","coordinates":[138.083889,35.338056]}},{"type":"Feature","id":"yama_087","properties":{"id":"yama_087","name":"白山","pref":"石川県","altitude":2702,"tags":["百名山"]},"geometry":{"type":"Point","coordinates":[136.771389,36.155]}},{"type":"Feature","id":"yama_088","properties":{"id":"yama_088","name":"荒島岳","pref":"福井県","altitude":1523,"tags":["百名山"]},"geometry":{"type":"Point","coordinates":[136.601389,35.934167]}},{"type":"Feature","id":"yama_089","properties":{"id":"yama_089","name":"伊吹山","pref":"滋賀県","altitude":1377,"tags":["百名山"]},"geometry":{"type":"Point","coordinates":[136.406389,35.417778]}},{"type":"Feature","id":"yama_090","properties":{"id":"yama_090","name":"大台ヶ原山","pref":"奈良県","altitude":1695,"tags":["百名山"]},"geometry":{"type":"Point","coordinates":[136.109167,34.185278]}},{"type":"Feature","id":"yama_091","properties":{"id":"yama_091","name":"大峰山","pref":"奈良県","altitude":1915,"tags":["百名山"]},"geometry":{"type":"Point","coordinates":[135.9075,34.173611]}},{"type":"Feature","id":"yama_092","properties":{"id":"yama_092","name":"大山","pref":"鳥取県","altitude":1729,"tags":["百名山"]},"geometry":{"type":"Point","coordinates":[133.546111,35.371111]}},{"type":"Feature","id":"yama_093","properties":{"id":"yama_093","name":"剣山","pref":"徳島県","altitude":1955,"tags":["百名山"]},"geometry":{"type":"Point","coordinates":[134.094167,33.853611]}},{"type":"Feature","id":"yama_094","properties":{"id":"yama_094","name":"石鎚山","pref":"愛媛県","altitude":1982,"tags":["百名山"]},"geometry":{"type":"Point","coordinates":[133.115,33.767778]}},{"type":"Feature","id":"yama_095","properties":{"id":"yama_095","name":"くじゅう連山","pref":"大分県","altitude":1787,"tags":["百名山"]},"geometry":{"type":"Point","coordinates":[131.240833,33.082222]}},{"type":"Feature","id":"yama_096","properties":{"id":"yama_096","name":"祖母山","pref":"大分県","altitude":1756,"tags":["百名山"]},"geometry":{"type":"Point","coordinates":[131.346944,32.828055]}},{"type":"Feature","id":"yama_097","properties":{"id":"yama_097","name":"阿蘇山","pref":"熊本県","altitude":1592,"tags":["百名山"]},"geometry":{"type":"Point","coordinates":[131.103889,32.884444]}},{"type":"Feature","id":"yama_098","properties":{"id":"yama_098","name":"霧島山","pref":"宮崎県","altitude":1700,"tags":["百名山"]},"geometry":{"type":"Point","coordinates":[130.861667,31.934167]}},{"type":"Feature","id":"yama_099","properties":{"id":"yama_099","name":"開聞岳","pref":"鹿児島県","altitude":924,"tags":["百名山"]},"geometry":{"type":"Point","coordinates":[130.528333,31.18]}},{"type":"Feature","id":"yama_100","properties":{"id":"yama_100","name":"宮之浦岳","pref":"鹿児島県","altitude":1936,"tags":["百名山"]},"geometry":{"type":"Point","coordinates":[130.504167,30.336111]}}]}